ONEWEB-0687             
1 61595U 24188B   25150.91667824  .00000014  00000+0  00000+0 0  9998
2 61595  87.7167  82.2105 0004615 181.6205  23.1892 13.49512233  5251
ONEWEB-0688             
1 61596U 24188C   25150.91667824  .00000014  00000+0  00000+0 0  9999
2 61596  87.7354  82.1629 0002501 181.3460  46.9109 13.46668785  5268
ONEWEB-0689             
1 61597U 24188D   25150.86764627 -.00000308  00000+0 -90409-3 0  9997
2 61597  87.8796  97.2967 0002424  79.0362 281.1039 13.11413831 34348
ONEWEB-0690             
1 61598U 24188E   25150.87781457 -.00000600  00000+0 -17299-2 0  9999
2 61598  87.8848  97.2279 0001352  94.0545 266.0738 13.11421341 34525
ONEWEB-0691             
1 61599U 24188F   25150.87269613 -.00000416  00000+0 -12099-2 0  9993
2 61599  87.8745  97.2778 0002027  70.1992 289.9355 13.11422886 34374
ONEWEB-0692             
1 61600U 24188G   25150.89308138 -.00000144  00000+0 -44126-3 0  9999
2 61600  87.8828  97.3094 0002766  96.8900 263.2543 13.11416382 34362
ONEWEB-0693             
1 61601U 24188H   25150.91667824  .00000014  00000+0  00000+0 0  9996
2 61601  87.7043  82.2530 0002515 204.3759 260.3900 13.49941166  5254
ONEWEB-0695             
1 61602U 24188J   25150.86936268 -.00000340  00000+0 -99391-3 0  9991
2 61602  87.8833  97.2964 0002680  85.6556 274.4878 13.11419856 34356
